{
  "type": "FeatureCollection",
  "features": [
    {
      "type": "Feature",
      "properties": {
        "norad_id": 31303,
        "name": "FENGYUN 1C DEB",
        "group": "fengyun-1c-debris",
        "lat": 20.15879775632331,
        "lon": 177.5174407992242,
        "alt_km": 848.1342065530198,
        "timestamp": "2025-12-03T19:33:07.257690+00:00",
        "meta_object_name": "FENGYUN 1C DEB",
        "meta_object_id": "1999-025BPM",
        "meta_epoch": "2025-12-03T06:53:07.797984",
        "meta_mean_motion": 14.11018646,
        "meta_eccentricity": 0.001116,
        "meta_inclination": 98.7053,
        "meta_ra_of_asc_node": 353.7816,
        "meta_arg_of_pericenter": 178.1481,
        "meta_mean_anomaly": 181.9733,
        "meta_ephemeris_type": 0,
        "meta_classification_type": "U",
        "meta_norad_cat_id": 31303,
        "meta_element_set_no": 999,
        "meta_rev_at_epoch": 96185,
        "meta_bstar": 0.00016202,
        "meta_mean_motion_dot": 2.49e-06,
        "meta_mean_motion_ddot": 0,
        "tle_line1": "1 31303U 99025BPM 25337.28689581  .00000249  00000+0  16202-3 0  9990",
        "tle_line2": "2 31303  98.7053 353.7816 0011160 178.1481 181.9733 14.11018646961859"
      },
      "geometry": {
        "type": "Point",
        "coordinates": [
          177.5174407992242,
          20.15879775632331
        ]
      }
    },
    {
      "type": "Feature",
      "properties": {
        "norad_id": 31311,
        "name": "FENGYUN 1C DEB",
        "group": "fengyun-1c-debris",
        "lat": -20.43729078348575,
        "lon": 62.34626654598264,
        "alt_km": 807.7121350381685,
        "timestamp": "2025-12-03T19:33:07.257700+00:00",
        "meta_object_name": "FENGYUN 1C DEB",
        "meta_object_id": "1999-025BPP",
        "meta_epoch": "2025-12-03T11:33:01.080864",
        "meta_mean_motion": 14.29607832,
        "meta_eccentricity": 0.0019518,
        "meta_inclination": 98.8541,
        "meta_ra_of_asc_node": 58.6776,
        "meta_arg_of_pericenter": 113.3366,
        "meta_mean_anomaly": 311.3178,
        "meta_ephemeris_type": 0,
        "meta_classification_type": "U",
        "meta_norad_cat_id": 31311,
        "meta_element_set_no": 999,
        "meta_rev_at_epoch": 96089,
        "meta_bstar": 0.0025826,
        "meta_mean_motion_dot": 6.585e-05,
        "meta_mean_motion_ddot": 0,
        "tle_line1": "1 31311U 99025BPP 25337.48126251  .00006585  00000+0  25826-2 0  9991",
        "tle_line2": "2 31311  98.8541  58.6776 0019518 113.3366 311.3178 14.29607832960890"
      },
      "geometry": {
        "type": "Point",
        "coordinates": [
          62.34626654598264,
          -20.43729078348575
        ]
      }
    },
    {
      "type": "Feature",
      "properties": {
        "norad_id": 31312,
        "name": "FENGYUN 1C DEB",
        "group": "fengyun-1c-debris",
        "lat": -12.626184620751836,
        "lon": -34.245416917298535,
        "alt_km": 891.7446534948513,
        "timestamp": "2025-12-03T19:33:07.257710+00:00",
        "meta_object_name": "FENGYUN 1C DEB",
        "meta_object_id": "1999-025BPQ",
        "meta_epoch": "2025-12-01T11:40:09.596352",
        "meta_mean_motion": 14.00893121,
        "meta_eccentricity": 0.00581856,
        "meta_inclination": 98.8574,
        "meta_ra_of_asc_node": 321.4953,
        "meta_arg_of_pericenter": 267.9693,
        "meta_mean_anomaly": 222.3029,
        "meta_ephemeris_type": 0,
        "meta_classification_type": "U",
        "meta_norad_cat_id": 31312,
        "meta_element_set_no": 999,
        "meta_rev_at_epoch": 94988,
        "meta_bstar": 0.00061208287,
        "meta_mean_motion_dot": 8.85e-06,
        "meta_mean_motion_ddot": 0,
        "tle_line1": "1 31312U 99025BPQ 25335.48622218  .00000885  00000+0  61208-3 0  9996",
        "tle_line2": "2 31312  98.8574 321.4953 0058185 267.9693 222.3029 14.00893121949886"
      },
      "geometry": {
        "type": "Point",
        "coordinates": [
          -34.245416917298535,
          -12.626184620751836
        ]
      }
    },
    {
      "type": "Feature",
      "properties": {
        "norad_id": 31313,
        "name": "FENGYUN 1C DEB",
        "group": "fengyun-1c-debris",
        "lat": 64.55228537237485,
        "lon": -137.98847163757944,
        "alt_km": 836.0205657560437,
        "timestamp": "2025-12-03T19:33:07.257720+00:00",
        "meta_object_name": "FENGYUN 1C DEB",
        "meta_object_id": "1999-025BPR",
        "meta_epoch": "2025-12-03T04:02:38.444928",
        "meta_mean_motion": 14.22252395,
        "meta_eccentricity": 0.0044174,
        "meta_inclination": 99.0144,
        "meta_ra_of_asc_node": 240.8383,
        "meta_arg_of_pericenter": 208.9007,
        "meta_mean_anomaly": 150.9723,
        "meta_ephemeris_type": 0,
        "meta_classification_type": "U",
        "meta_norad_cat_id": 31313,
        "meta_element_set_no": 999,
        "meta_rev_at_epoch": 96926,
        "meta_bstar": 0.00039979542,
        "meta_mean_motion_dot": 8.5e-06,
        "meta_mean_motion_ddot": 0,
        "tle_line1": "1 31313U 99025BPR 25337.16850052  .00000850  00000+0  39980-3 0  9997",
        "tle_line2": "2 31313  99.0144 240.8383 0044174 208.9007 150.9723 14.22252395969268"
      },
      "geometry": {
        "type": "Point",
        "coordinates": [
          -137.98847163757944,
          64.55228537237485
        ]
      }
    },
    {
      "type": "Feature",
      "properties": {
        "norad_id": 31314,
        "name": "FENGYUN 1C DEB",
        "group": "fengyun-1c-debris",
        "lat": -47.568810267082554,
        "lon": -18.145933389786173,
        "alt_km": 863.9737521763773,
        "timestamp": "2025-12-03T19:33:07.257730+00:00",
        "meta_object_name": "FENGYUN 1C DEB",
        "meta_object_id": "1999-025BPS",
        "meta_epoch": "2025-11-29T06:23:17.726496",
        "meta_mean_motion": 14.04902507,
        "meta_eccentricity": 0.00792454,
        "meta_inclination": 98.8217,
        "meta_ra_of_asc_node": 327.6511,
        "meta_arg_of_pericenter": 34.949,
        "meta_mean_anomaly": 325.6844,
        "meta_ephemeris_type": 0,
        "meta_classification_type": "U",
        "meta_norad_cat_id": 31314,
        "meta_element_set_no": 999,
        "meta_rev_at_epoch": 60625,
        "meta_bstar": 0.00041647017,
        "meta_mean_motion_dot": 6.46e-06,
        "meta_mean_motion_ddot": 0,
        "tle_line1": "1 31314U 99025BPS 25333.26617739  .00000646  00000+0  41647-3 0  9994",
        "tle_line2": "2 31314  98.8217 327.6511 0079245  34.9490 325.6844 14.04902507606253"
      },
      "geometry": {
        "type": "Point",
        "coordinates": [
          -18.145933389786173,
          -47.568810267082554
        ]
      }
    },
    {
      "type": "Feature",
      "properties": {
        "norad_id": 31319,
        "name": "FENGYUN 1C DEB",
        "group": "fengyun-1c-debris",
        "lat": 27.123255839699578,
        "lon": -127.29429166751412,
        "alt_km": 960.2053492937403,
        "timestamp": "2025-12-03T19:33:07.257741+00:00",
        "meta_object_name": "FENGYUN 1C DEB",
        "meta_object_id": "1999-025BPX",
        "meta_epoch": "2025-12-01T13:52:46.372800",
        "meta_mean_motion": 13.7582212,
        "meta_eccentricity": 0.01704858,
        "meta_inclination": 98.8307,
        "meta_ra_of_asc_node": 235.1992,
        "meta_arg_of_pericenter": 116.5538,
        "meta_mean_anomaly": 2.353,
        "meta_ephemeris_type": 0,
        "meta_classification_type": "U",
        "meta_norad_cat_id": 31319,
        "meta_element_set_no": 999,
        "meta_rev_at_epoch": 93534,
        "meta_bstar": 0.00018484485,
        "meta_mean_motion_dot": 1.61e-06,
        "meta_mean_motion_ddot": 0,
        "tle_line1": "1 31319U 99025BPX 25335.57831450  .00000161  00000+0  18484-3 0  9998",
        "tle_line2": "2 31319  98.8307 235.1992 0170485 116.5538   2.3530 13.75822120935347"
      },
      "geometry": {
        "type": "Point",
        "coordinates": [
          -127.29429166751412,
          27.123255839699578
        ]
      }
    },
    {
      "type": "Feature",
      "properties": {
        "norad_id": 31321,
        "name": "FENGYUN 1C DEB",
        "group": "fengyun-1c-debris",
        "lat": -2.3689053378523415,
        "lon": -123.47460118831862,
        "alt_km": 829.7581421118866,
        "timestamp": "2025-12-03T19:33:07.257751+00:00",
        "meta_object_name": "FENGYUN 1C DEB",
        "meta_object_id": "1999-025BPZ",
        "meta_epoch": "2025-11-28T23:11:37.489632",
        "meta_mean_motion": 14.13809948,
        "meta_eccentricity": 0.00293651,
        "meta_inclination": 98.7348,
        "meta_ra_of_asc_node": 52.1537,
        "meta_arg_of_pericenter": 217.1862,
        "meta_mean_anomaly": 142.7277,
        "meta_ephemeris_type": 0,
        "meta_classification_type": "U",
        "meta_norad_cat_id": 31321,
        "meta_element_set_no": 999,
        "meta_rev_at_epoch": 57189,
        "meta_bstar": 0.00017233355,
        "meta_mean_motion_dot": 2.84e-06,
        "meta_mean_motion_ddot": 0,
        "tle_line1": "1 31321U 99025BPZ 25332.96640613  .00000284  00000+0  17233-3 0  9997",
        "tle_line2": "2 31321  98.7348  52.1537 0029365 217.1862 142.7277 14.13809948571893"
      },
      "geometry": {
        "type": "Point",
        "coordinates": [
          -123.47460118831862,
          -2.3689053378523415
        ]
      }
    }
  ]
}